{
    "links": {
        "self": "http://www.neowsapp.com/rest/v1/neo/3650849?api_key=iIulBulltgU6a56xZRHN4H3l9WmuAYTsLGpBGhQ2"
    },
    "id": "3650849",
    "neo_reference_id": "3650849",
    "name": "(2013 TL127)",
    "designation": "2013 TL127",
    "nasa_jpl_url": "http://ssd.jpl.nasa.gov/sbdb.cgi?sstr=3650849",
    "absolute_magnitude_h": 26.7,
    "estimated_diameter": {
        "kilometers": {
            "estimated_diameter_min": 0.0121494041,
            "estimated_diameter_max": 0.0271668934
        },
        "meters": {
            "estimated_diameter_min": 12.14940408,
            "estimated_diameter_max": 27.1668934089
        },
        "miles": {
            "estimated_diameter_min": 0.0075492874,
            "estimated_diameter_max": 0.0168807197
        },
        "feet": {
            "estimated_diameter_min": 39.8602508817,
            "estimated_diameter_max": 89.1302305717
        }
    },
    "is_potentially_hazardous_asteroid": false,
    "close_approach_data": [
        {
            "close_approach_date": "2013-10-08",
            "close_approach_date_full": "2013-Oct-08 19:44",
            "epoch_date_close_approach": 1381261440000,
            "relative_velocity": {
                "kilometers_per_second": "13.5667733343",
                "kilometers_per_hour": "48840.3840036539",
                "miles_per_hour": "30347.5152716037"
            },
            "miss_distance": {
                "astronomical": "0.0021290777",
                "lunar": "0.8282112253",
                "kilometers": "318505.488984499",
                "miles": "197910.1336401262"
            },
            "orbiting_body": "Moon"
        },
        {
            "close_approach_date": "2013-10-09",
            "close_approach_date_full": "2013-Oct-09 02:25",
            "epoch_date_close_approach": 1381285500000,
            "relative_velocity": {
                "kilometers_per_second": "13.9925816875",
                "kilometers_per_hour": "50373.2940749546",
                "miles_per_hour": "31300.0059767406"
            },
            "miss_distance": {
                "astronomical": "0.0025156781",
                "lunar": "0.9785987809",
                "kilometers": "376340.085365647",
                "miles": "233846.8854220486"
            },
            "orbiting_body": "Earth"
        },
        {
            "close_approach_date": "2015-07-21",
            "close_approach_date_full": "2015-Jul-21 02:15",
            "epoch_date_close_approach": 1437444900000,
            "relative_velocity": {
                "kilometers_per_second": "4.3589410544",
                "kilometers_per_hour": "15692.1877959754",
                "miles_per_hour": "9750.5152446715"
            },
            "miss_distance": {
                "astronomical": "1.3030177232",
                "lunar": "506.8738943248",
                "kilometers": "194928675.962969584",
                "miles": "121123062.6923408992"
            },
            "orbiting_body": "Juptr"
        }
    ],
    "orbital_data": {
        "orbit_id": "6",
        "orbit_determination_date": "2017-04-06 08:44:13",
        "first_observation_date": "2013-10-10",
        "last_observation_date": "2013-10-12",
        "data_arc_in_days": 2,
        "observations_used": 63,
        "orbit_uncertainty": "7",
        "minimum_orbit_intersection": ".0026333",
        "jupiter_tisserand_invariant": "3.119",
        "epoch_osculation": "2459000.5",
        "eccentricity": ".650481460084389",
        "semi_major_axis": "2.524045929518026",
        "inclination": ".3078996031580443",
        "ascending_node_longitude": "43.24794890089589",
        "orbital_period": "1464.685246383841",
        "perihelion_distance": ".8822008479650815",
        "perihelion_argument": "285.1557853560756",
        "aphelion_distance": "4.165891011070969",
        "perihelion_time": "2459477.000172041408",
        "mean_anomaly": "242.8826450198622",
        "mean_motion": ".2457865953718066",
        "equinox": "J2000",
        "orbit_class": {
            "orbit_class_type": "APO",
            "orbit_class_description": "Near-Earth asteroid orbits which cross the Earth’s orbit similar to that of 1862 Apollo",
            "orbit_class_range": "a (semi-major axis) > 1.0 AU; q (perihelion) < 1.017 AU"
        }
    },
    "is_sentry_object": false
}